[{"OBJECT_NAME":"STARLINK-31403","OBJECT_ID":"2024-045J","EPOCH":"2026-03-09T01:57:30.241728","MEAN_MOTION":15.27581752,"ECCENTRICITY":0.00012955,"INCLINATION":43.0043,"RA_OF_ASC_NODE":74.5467,"ARG_OF_PERICENTER":248.8644,"MEAN_ANOMALY":111.207,"EPHEMERIS_TYPE":0,"CLASSIFICATION_TYPE":"U","NORAD_CAT_ID":59186,"ELEMENT_SET_NO":999,"REV_AT_EPOCH":11325,"BSTAR":3.1976183e-5,"MEAN_MOTION_DOT":6.18e-6,"MEAN_MOTION_DDOT":0},{"OBJECT_NAME":"OBJECT M","OBJECT_ID":"2024-205M","EPOCH":"2026-03-09T22:23:47.520096","MEAN_MOTION":15.27663844,"ECCENTRICITY":0.00036602,"INCLINATION":97.3915,"RA_OF_ASC_NODE":144.193,"ARG_OF_PERICENTER":310.2554,"MEAN_ANOMALY":49.8364,"EPHEMERIS_TYPE":0,"CLASSIFICATION_TYPE":"U","NORAD_CAT_ID":61905,"ELEMENT_SET_NO":999,"REV_AT_EPOCH":7334,"BSTAR":0.00036391974,"MEAN_MOTION_DOT":9.771e-5,"MEAN_MOTION_DDOT":0}]
